H-2A R/B                
1 28932U 06002B   26170.49336598  .00005418  00000+0  26150-3 0  9999
2 28932  98.2571 326.5305 0049604 254.2243 105.3515 15.18084943109875
RESURS-DK 1             
1 29228U 06021A   26170.48117437  .00001551  00000+0  93164-4 0  9991
2 29228  69.9330 333.6151 0006880 290.7888  69.2541 15.13225616102924
CZ-4B R/B               
1 29507U 06046C   26170.56030294  .00002940  00000+0  14722-3 0  9997
2 29507  97.5449 215.1602 0030954 274.0576  85.7120 15.17797694 75496
CZ-2C R/B               
1 31114U 07010B   26170.52562050  .00000052  00000+0  42794-4 0  9995
2 31114  98.4102 278.7621 0058872 359.3184   0.7904 14.20276541994174
COSMO-SKYMED 1          
1 31598U 07023A   26170.60797968  .00002247  00000+0  19994-3 0  9995
2 31598  97.8850   2.4838 0001481  98.0883 262.0506 14.97109815 30155
COSMOS 2428             
1 31792U 07029A   26170.19677095 -.00000099  00000+0 -27670-4 0  9995
2 31792  70.9350 350.2580 0007130 131.1974 228.9763 14.12927953978439
SL-16 R/B               
1 31793U 07029B   26170.58733084  .00000007  00000+0  28475-4 0  9991
2 31793  70.9771 318.1824 0002374 262.7485 175.6192 14.14855610979789
KORONAS-FOTON           
1 33504U 09003A   26170.47373058  .00009943  00000+0  20420-3 0  9995
2 33504  82.4289 169.8742 0011897 140.0965 220.1160 15.45761286961450
CZ-2C R/B               
1 37731U 11030B   26170.35453662  .00001009  00000+0  13261-3 0  9991
2 37731  97.8655 125.7015 0052886  21.0278 131.5769 14.81476109805144
H-2A R/B                
1 38341U 12025E   26170.49833477  .00001712  00000+0  15715-3 0  9992
2 38341  98.4833 145.8345 0043496 341.6252  18.3393 14.95730025763431
SHIJIAN-16 (SJ-16)      
1 39358U 13057A   26170.65237917  .00000432  00000+0  44768-4 0  9991
2 39358  74.9726 352.0133 0016713 225.0439 134.9395 14.92607180686715
SL-4 R/B                
1 39679U 14021B   26170.33216816  .00007880  00000+0  16588-3 0  9991
2 39679  51.6042 200.2620 0091147 113.7762 247.2814 15.41991615671942
ALOS-2                  
1 39766U 14029A   26170.57395096  .00001538  00000+0  21271-3 0  9999
2 39766  97.9224 267.7035 0001692  91.9201 268.2204 14.79476685651931
YAOGAN-29               
1 41038U 15069A   26170.60666095 -.00000074  00000+0 -24952-5 0  9990
2 41038  98.0020 199.2438 0002516  49.9674 310.1760 14.83086053570981
ASTRO-H (HITOMI)        
1 41337U 16012A   26170.14882152  .00001996  00000+0  11244-3 0  9994
2 41337  30.9995  61.5179 0009774 273.2762  86.6758 15.10517915567586
HXMT (HUIYAN)           
1 42758U 17034A   26170.43658834  .00002273  00000+0  11861-3 0  9991
2 42758  43.0125 170.5154 0030876 161.6536 198.5432 15.18487849498006
SAOCOM 1A               
1 43641U 18076A   26170.63393485  .00000271  00000+0  40637-4 0  9990
2 43641  97.8882 357.3465 0001594  79.9578 280.1815 14.82150608416460
H-2A R/B                
1 43682U 18084L   26170.58902688  .00016903  00000+0  35427-3 0  9998
2 43682  98.8568  50.0032 0023254  32.4127 327.8540 15.45231454421497
SAOCOM 1B               
1 46265U 20059A   26170.59758182 -.00000087  00000+0 -43359-5 0  9995
2 46265  97.8884 356.4053 0001565  84.9472 275.1920 14.82145956313846
CSS (TIANHE)            
1 48274U 21035A   26170.53640025  .00019225  00000+0  22646-3 0  9998
2 48274  41.4696 307.7047 0007363  97.4720 262.6956 15.60899851293533
COSMOS 2550             
1 48865U 21056A   26170.63238667  .00004132  00000+0  13132-3 0  9994
2 48865  67.1432  92.5096 0008409 268.8789  91.1402 15.33833013279090
CZ-2C R/B               
1 52794U 22058K   26170.41728611  .00035796  00000+0  39544-3 0  9997
2 52794  50.1848 151.9127 0032468 277.2329  82.4954 15.61996467225999
CZ-2C R/B               
1 54039U 22132E   26170.57196850  .00056019  00000+0  43005-3 0  9993
2 54039  97.2905 177.7027 0015710  76.9211 283.3805 15.71740322206320
GSLV R/B                
1 54149U 22138AN  26170.32328911  .00002019  00000+0  17093-3 0  9998
2 54149  87.3806 132.2670 0023109 136.4786 223.8275 14.97265261199133
XRISM                   
1 57800U 23137A   26170.56645988  .00004004  00000+0  21890-3 0  9993
2 57800  31.0032 344.1895 0007934 347.4528  12.5912 15.12484218153220
ACS3                    
1 59588U 24077B   26170.50222232  .00039988  00000+0  29198-1 0  9995
2 59588  97.1690  88.7765 0080296  62.1682 298.7592 13.94234122108361
CZ-8A R/B               
1 66004U 25231K   26170.28800177 -.00000018  00000+0  51915-4 0  9992
2 66004  50.0053  30.3782 0116483 231.4081 127.6356 14.30155399 35240
SZ-21 MODULE            
1 66515U 25246C   26170.62304187  .00039794  00000+0  24286-3 0  9995
2 66515  41.4730 292.1532 0005926   7.7871 352.3065 15.76588492 34129
